[{"OBJECT_NAME":"STARLINK-1012","OBJECT_ID":"2019-074F","EPOCH":"2026-03-09T14:55:02.288064","MEAN_MOTION":15.30183402,"ECCENTRICITY":0.000234,"INCLINATION":53.1621,"RA_OF_ASC_NODE":179.1275,"ARG_OF_PERICENTER":35.486,"MEAN_ANOMALY":324.6296,"EPHEMERIS_TYPE":0,"CLASSIFICATION_TYPE":"U","NORAD_CAT_ID":44718,"ELEMENT_SET_NO":999,"REV_AT_EPOCH":34885,"BSTAR":-5.5774e-5,"MEAN_MOTION_DOT":-2.011e-5,"MEAN_MOTION_DDOT":0},{"OBJECT_NAME":"OBJECT F","OBJECT_ID":"2021-022F","EPOCH":"2026-03-09T23:37:37.165152","MEAN_MOTION":15.31317672,"ECCENTRICITY":0.00120882,"INCLINATION":97.3982,"RA_OF_ASC_NODE":329.8375,"ARG_OF_PERICENTER":85.9268,"MEAN_ANOMALY":274.3355,"EPHEMERIS_TYPE":0,"CLASSIFICATION_TYPE":"U","NORAD_CAT_ID":47937,"ELEMENT_SET_NO":999,"REV_AT_EPOCH":27452,"BSTAR":0.00038690553,"MEAN_MOTION_DOT":0.00011656,"MEAN_MOTION_DDOT":0}]
